[{"OBJECT_NAME":"KANOPUS-V 5","OBJECT_ID":"2018-111A","EPOCH":"2026-03-09T21:37:32.042784","MEAN_MOTION":15.22750265,"ECCENTRICITY":0.0001351,"INCLINATION":97.3642,"RA_OF_ASC_NODE":336.4182,"ARG_OF_PERICENTER":73.1386,"MEAN_ANOMALY":286.9998,"EPHEMERIS_TYPE":0,"CLASSIFICATION_TYPE":"U","NORAD_CAT_ID":43876,"ELEMENT_SET_NO":999,"REV_AT_EPOCH":39967,"BSTAR":0.00010734798,"MEAN_MOTION_DOT":2.436e-5,"MEAN_MOTION_DDOT":0},{"OBJECT_NAME":"COSMOS 2251 DEB","OBJECT_ID":"1993-036AKM","EPOCH":"2026-03-09T06:40:10.063200","MEAN_MOTION":15.08111536,"ECCENTRICITY":0.00695902,"INCLINATION":73.9816,"RA_OF_ASC_NODE":154.5784,"ARG_OF_PERICENTER":280.7947,"MEAN_ANOMALY":78.5416,"EPHEMERIS_TYPE":0,"CLASSIFICATION_TYPE":"U","NORAD_CAT_ID":35443,"ELEMENT_SET_NO":999,"REV_AT_EPOCH":88177,"BSTAR":0.0043181541,"MEAN_MOTION_DOT":0.00071124,"MEAN_MOTION_DDOT":0}]
